[{"OBJECT_NAME":"STARLINK-31510","OBJECT_ID":"2024-076M","EPOCH":"2026-03-09T04:18:28.050048","MEAN_MOTION":15.27587823,"ECCENTRICITY":6.423e-5,"INCLINATION":43.0034,"RA_OF_ASC_NODE":8.518,"ARG_OF_PERICENTER":282.3748,"MEAN_ANOMALY":77.7032,"EPHEMERIS_TYPE":0,"CLASSIFICATION_TYPE":"U","NORAD_CAT_ID":59575,"ELEMENT_SET_NO":999,"REV_AT_EPOCH":10646,"BSTAR":0.0001085808,"MEAN_MOTION_DOT":2.728e-5,"MEAN_MOTION_DDOT":0},{"OBJECT_NAME":"TITAN 3C TRANSTAGE DEB","OBJECT_ID":"1965-082PT","EPOCH":"2026-03-09T13:23:41.116128","MEAN_MOTION":15.28908269,"ECCENTRICITY":0.00104371,"INCLINATION":32.0266,"RA_OF_ASC_NODE":255.1391,"ARG_OF_PERICENTER":172.8339,"MEAN_ANOMALY":187.2474,"EPHEMERIS_TYPE":0,"CLASSIFICATION_TYPE":"U","NORAD_CAT_ID":3462,"ELEMENT_SET_NO":999,"REV_AT_EPOCH":24824,"BSTAR":0.0004444037,"MEAN_MOTION_DOT":0.00012939,"MEAN_MOTION_DDOT":0}]
